*******************************************************************************
JPL/HORIZONS               2193 Jackson (1926 KB)          2023-Sep-04 11:16:31
Rec #:    2193 (+COV) Soln.date: 2023-Aug-22_17:50:27   # obs: 9778 (1931-2023)
 
IAU76/J2000 helio. ecliptic osc. elements (au, days, deg., period=Julian yrs):
 
  EPOCH=  2457645.5 ! 2016-Sep-14.00 (TDB)         Residual RMS= .25347
   EC= .07430205299659427  QR= 2.874026935512272   TP= 2456767.1966585768
   OM= 36.60961558460397   W=  226.3792403084454   IN= 11.690100358569
   A= 3.104713524336787    MA= 158.2400125356021   ADIST= 3.335400113161302
   PER= 5.47067            N= .180165559           ANGMOM= .030226653
   DAN= 3.25439            DDN= 2.93702            L= 262.3888244
   B= -8.4345585           MOID= 1.87428999        TP= 2014-Apr-19.6966585768
 
Asteroid physical parameters (km, seconds, rotational period in hours):
   GM= n.a.                RAD= 29.1325            ROTPER= 4.7541
   H= 10.65                G= .150                 B-V= n.a.
                           ALBEDO= .036            STYP= n.a.

ASTEROID comments: 
1: soln ref.= JPL#57, OCC=0
2: source=ORB
*******************************************************************************


*******************************************************************************
Ephemeris / API_USER Mon Sep  4 11:16:31 2023 Pasadena, USA      / Horizons
*******************************************************************************
Target body name: 2193 Jackson (1926 KB)          {source: JPL#57}
Center body name: Solar System Barycenter (0)     {source: DE441}
Center-site name: BODY CENTER
*******************************************************************************
Start time      : A.D. 2023-Aug-12 00:00:00.0000 TDB
Stop  time      : A.D. 2023-Aug-13 00:00:00.0000 TDB
Step-size       : 2880 minutes
*******************************************************************************
Center geodetic : 0.0, 0.0, 0.0                   {E-lon(deg),Lat(deg),Alt(km)}
Center cylindric: 0.0, 0.0, 0.0                   {E-lon(deg),Dxy(km),Dz(km)}
Center radii    : (undefined)
Small perturbers: Yes                             {source: SB441-N16}
Output units    : KM-S
Calendar mode   : Mixed Julian/Gregorian
Output type     : GEOMETRIC cartesian states
Output format   : 2 (position and velocity)
Reference frame : Ecliptic of J2000.0
*******************************************************************************
Initial IAU76/J2000 heliocentric ecliptic osculating elements (au, days, deg.):
  EPOCH=  2457645.5 ! 2016-Sep-14.00 (TDB)         Residual RMS= .25347        
   EC= .07430205299659427  QR= 2.874026935512272   TP= 2456767.1966585768      
   OM= 36.60961558460397   W=  226.3792403084454   IN= 11.690100358569         
  Equivalent ICRF heliocentric cartesian coordinates (au, au/d):
   X= 1.467936610043863E+00  Y= 2.594616109115245E+00  Z= 1.463828999870504E+00
  VX=-7.985766071565733E-03 VY= 3.053010488291818E-03 VZ= 3.130123938422293E-03
Asteroid physical parameters (km, seconds, rotational period in hours):        
   GM= n.a.                RAD= 29.1325            ROTPER= 4.7541              
   H= 10.65                G= .150                 B-V= n.a.                   
                           ALBEDO= .036            STYP= n.a.                  
*******************************************************************************
JDTDB
   X     Y     Z
   VX    VY    VZ
*******************************************************************************
$$SOE
2460168.500000000 = A.D. 2023-Aug-12 00:00:00.0000 TDB 
 X =-3.979486404229589E+08 Y = 2.458978903759059E+08 Z = 8.966878330249368E+07
 VX=-7.875344050662640E+00 VY=-1.445105178142374E+01 VZ=-1.431772389655778E+00
$$EOE
*******************************************************************************
 
TIME

  Barycentric Dynamical Time ("TDB" or T_eph) output was requested. This
continuous coordinate time is equivalent to the relativistic proper time
of a clock at rest in a reference frame co-moving with the solar system
barycenter but outside the system's gravity well. It is the independent
variable in the solar system relativistic equations of motion.

  TDB runs at a uniform rate of one SI second per second and is independent
of irregularities in Earth's rotation.
 
CALENDAR SYSTEM

  Mixed calendar mode was active such that calendar dates after AD 1582-Oct-15
(if any) are in the modern Gregorian system. Dates prior to 1582-Oct-5 (if any)
are in the Julian calendar system, which is automatically extended for dates
prior to its adoption on 45-Jan-1 BC.  The Julian calendar is useful for
matching historical dates. The Gregorian calendar more accurately corresponds
to the Earth's orbital motion and seasons. A "Gregorian-only" calendar mode is
available if such physical events are the primary interest.

REFERENCE FRAME AND COORDINATES

  Ecliptic at the standard reference epoch

    Reference epoch: J2000.0
    X-Y plane: adopted Earth orbital plane at the reference epoch
               Note: IAU76 obliquity of 84381.448 arcseconds wrt ICRF X-Y plane
    X-axis   : ICRF
    Z-axis   : perpendicular to the X-Y plane in the directional (+ or -) sense
               of Earth's north pole at the reference epoch.

  Symbol meaning:

    JDTDB    Julian Day Number, Barycentric Dynamical Time
      X      X-component of position vector (km)
      Y      Y-component of position vector (km)
      Z      Z-component of position vector (km)
      VX     X-component of velocity vector (km/sec)                           
      VY     Y-component of velocity vector (km/sec)                           
      VZ     Z-component of velocity vector (km/sec)                           

ABERRATIONS AND CORRECTIONS

 Geometric state vectors have NO corrections or aberrations applied.

Computations by ...

    Solar System Dynamics Group, Horizons On-Line Ephemeris System
    4800 Oak Grove Drive, Jet Propulsion Laboratory
    Pasadena, CA  91109   USA

    General site: https://ssd.jpl.nasa.gov/
    Mailing list: https://ssd.jpl.nasa.gov/email_list.html
    System news : https://ssd.jpl.nasa.gov/horizons/news.html
    User Guide  : https://ssd.jpl.nasa.gov/horizons/manual.html
    Connect     : browser        https://ssd.jpl.nasa.gov/horizons/app.html#/x
                  API            https://ssd-api.jpl.nasa.gov/doc/horizons.html
                  command-line   telnet ssd.jpl.nasa.gov 6775
                  e-mail/batch   https://ssd.jpl.nasa.gov/ftp/ssd/hrzn_batch.txt
                  scripts        https://ssd.jpl.nasa.gov/ftp/ssd/SCRIPTS
    Author      : Jon.D.Giorgini@jpl.nasa.gov
*******************************************************************************
